     2.100          NAVIGATION                              RINEX VERSION / TYPE
fic2rin                                 10/02/2010 00:13:05 PGM / RUN BY / DATE
                                                            END OF HEADER
 9 10 10  1 12  0  0.0  .337683595717D-04  .227373675443D-11  .000000000000D+00
     .157000000000D+03 -.625000000000D+01  .414410118988D-08  .257177073765D+01
    -.463798642159D-06  .170206477633D-01  .360235571861D-05  .515370384407D+04
     .475200000000D+06  .195577740669D-06  .226503876853D+00 -.184401869774D-06
     .982051043236D+00  .317312500000D+03  .155152389376D+01 -.780461080765D-08
    -.892894335490D-11  .100000000000D+01  .160300000000D+04  .000000000000D+00
     .340000000000D+01  .000000000000D+00 -.558793544769D-08  .157000000000D+03
     .468006000000D+06  .400000000000D+01
10 10 10  1 12  0  0.0 -.539724715054D-04 -.113686837722D-11  .000000000000D+00
     .190000000000D+03  .285000000000D+02  .467055169008D-08  .497244806231D+00
     .159442424774D-05  .939161016140D-02  .837445259094D-05  .515352302551D+04
     .475200000000D+06 -.100582838058D-06 -.182043602778D+01  .221654772758D-06
     .951618569933D+00  .214031250000D+03  .664685030434D+00 -.818534095231D-08
    -.293226499775D-09  .100000000000D+01  .160300000000D+04  .000000000000D+00
     .240000000000D+01  .000000000000D+00 -.279396772385D-08  .190000000000D+03
     .468006000000D+06  .400000000000D+01
11 10 10  1 12  0  0.0 -.934386625886D-04 -.272848410532D-11  .000000000000D+00
     .106000000000D+03  .759375000000D+01  .624597445562D-08 -.312075932354D+01
     .361353158951D-06  .112449792214D-01  .720098614693D-05  .515376821518D+04
     .475200000000D+06  .260770320892D-07 -.313098040739D+01 -.124797224998D-06
     .888597248431D+00  .200062500000D+03  .848518262592D+00 -.865678916144D-08
     .946467995620D-10  .100000000000D+01  .160300000000D+04  .000000000000D+00
     .340000000000D+01  .000000000000D+00 -.116415321827D-07  .106000000000D+03
     .468006000000D+06  .400000000000D+01
12 10 10  1 12  0  0.0 -.676759518683D-04  .363797880709D-11  .000000000000D+00
     .400000000000D+01 -.765312500000D+02  .428124975981D-08 -.301834610639D+01
    -.405684113503D-05  .332339887973D-02  .776909291744D-05  .515360087967D+04
     .475200000000D+06 -.651925802231D-07  .131078322146D+01  .465661287308D-07
     .972000703868D+00  .234031250000D+03 -.321150616984D+00 -.787711382769D-08
    -.328585115460D-10  .100000000000D+01  .160300000000D+04  .000000000000D+00
     .240000000000D+01  .000000000000D+00 -.116415321827D-07  .400000000000D+01
     .468006000000D+06  .400000000000D+01
13 10 10  1 12  0  0.0  .296051148325D-03 -.102318153949D-11  .000000000000D+00
     .150000000000D+02  .771250000000D+02  .380194408052D-08 -.573323167520D+00
     .376813113689D-05  .431868142914D-02  .752136111259D-05  .515370438576D+04
     .475200000000D+06 -.409781932831D-07 -.721760458917D+00 -.186264514923D-07
     .991871512824D+00  .255281250000D+03  .181112885519D+01 -.788175687824D-08
     .171078554680D-09  .100000000000D+01  .160300000000D+04  .000000000000D+00
     .240000000000D+01  .000000000000D+00 -.107102096081D-07  .150000000000D+02
     .468006000000D+06  .400000000000D+01
14 10 10  1 12  0  0.0  .938815064728D-04  .363797880709D-11  .000000000000D+00
     .110000000000D+02  .819687500000D+02  .398945189097D-08 -.621426264875D+00
     .440329313278D-05  .568488123827D-02  .658072531223D-05  .515358120537D+04
     .475200000000D+06  .260770320892D-07 -.744381370998D+00  .894069671631D-07
     .985039621026D+00  .269031250000D+03 -.211869205436D+01 -.796890336538D-08
     .156077929844D-09  .100000000000D+01  .160300000000D+04  .000000000000D+00
     .240000000000D+01  .000000000000D+00 -.884756445885D-08  .110000000000D+02
     .468006000000D+06  .400000000000D+01
15 10 10  1 12  0  0.0 -.201716553420D-03  .511590769747D-11  .000000000000D+00
     .840000000000D+02  .637812500000D+02  .462340686917D-08 -.755834294778D+00
     .321678817272D-05  .277868006378D-02  .676140189171D-05  .515382659721D+04
     .475200000000D+06  .745058059692D-08 -.812501282385D+00 -.614672899246D-07
     .952441808064D+00  .241656250000D+03 -.214427609531D+00 -.822034241026D-08
     .714315468392D-10  .100000000000D+01  .160300000000D+04  .000000000000D+00
     .240000000000D+01  .000000000000D+00 -.977888703346D-08  .840000000000D+02
     .468006000000D+06  .400000000000D+01
16 10 10  1 12  0  0.0 -.113426707685D-03 -.341060513165D-11  .000000000000D+00
     .330000000000D+02 -.991562500000D+02  .431339395589D-08  .940103447265D+00
    -.503659248352D-05  .582900852896D-02  .769644975662D-05  .515366778946D+04
     .475200000000D+06  .819563865662D-07  .132836569007D+01  .409781932831D-07
     .973141841412D+00  .232656250000D+03 -.158336805375D+00 -.799926177279D-08
    -.115719105880D-09  .100000000000D+01  .160300000000D+04  .000000000000D+00
     .240000000000D+01  .000000000000D+00 -.102445483208D-07  .330000000000D+02
     .468006000000D+06  .400000000000D+01
18 10 10  1 12  0  0.0  .962736085057D-04  .227373675443D-11  .000000000000D+00
     .970000000000D+02  .393750000000D+02  .503592405216D-08  .126435670137D+01
     .204332172871D-05  .118556731613D-01  .853464007378D-05  .515373081589D+04
     .475200000000D+06 -.162050127983D-06 -.182241345854D+01  .689178705215D-07
     .935566993892D+00  .201843750000D+03 -.229266848097D+01 -.837963475971D-08
    -.351443210449D-09  .100000000000D+01  .160300000000D+04  .000000000000D+00
     .240000000000D+01  .000000000000D+00 -.107102096081D-07  .970000000000D+02
     .468006000000D+06  .400000000000D+01
19 10 10  1 12  0  0.0 -.705076381564D-04 -.329691829393D-11  .000000000000D+00
     .920000000000D+02 -.281875000000D+02  .456733310490D-08 -.941093665792D+00
    -.144354999065D-05  .670001783874D-02  .917725265026D-05  .515357186127D+04
     .475200000000D+06  .651925802231D-07  .242640817090D+01 -.121071934700D-06
     .958178733476D+00  .203218750000D+03 -.536408859696D-01 -.795354558281D-08
     .238938524177D-09  .100000000000D+01  .160300000000D+04  .000000000000D+00
     .240000000000D+01  .000000000000D+00 -.149011611938D-07  .920000000000D+02
     .468006000000D+06  .400000000000D+01
20 10 10  1 12  0  0.0  .506145879626D-04 -.341060513165D-12  .000000000000D+00
     .830000000000D+02  .355000000000D+02  .500092259421D-08  .164201855200D+01
     .181235373020D-05  .423992588185D-02  .873953104019D-05  .515381855774D+04
     .475200000000D+06 -.577419996262D-07 -.187639277890D+01 -.134110450745D-06
     .935569589109D+00  .195468750000D+03  .127505524804D+01 -.829855995405D-08
    -.282868925483D-09  .100000000000D+01  .160300000000D+04  .000000000000D+00
     .240000000000D+01  .000000000000D+00 -.791624188423D-08  .830000000000D+02
     .468006000000D+06  .400000000000D+01
23 10 10  1 12  0  0.0  .351129565388D-03 -.181898940355D-11  .000000000000D+00
     .550000000000D+02  .782812500000D+02  .430303638159D-08 -.138303419407D+01
     .372156500816D-05  .700885313563D-02  .722333788872D-05  .515364362144D+04
     .475200000000D+06  .186264514923D-07 -.785589025930D+00 -.102445483208D-06
     .966779398563D+00  .242343750000D+03  .310903385812D+01 -.808247952486D-08
     .220366321999D-09  .100000000000D+01  .160300000000D+04  .000000000000D+00
     .240000000000D+01  .000000000000D+00 -.200234353542D-07  .550000000000D+02
     .468006000000D+06  .400000000000D+01
24 10 10  1 12  0  0.0  .326385721564D-03  .329691829393D-11  .000000000000D+00
     .240000000000D+02  .850000000000D+01  .487127433670D-08 -.124626149899D+01
     .506639480591D-06  .573846721090D-02  .745803117752D-05  .515476037407D+04
     .475200000000D+06 -.130385160446D-06 -.283770060345D+01 -.447034835815D-07
     .949218148117D+00  .230875000000D+03 -.375161558322D+00 -.811283793226D-08
    -.114290474943D-10  .100000000000D+01  .160300000000D+04  .000000000000D+00
     .240000000000D+01  .000000000000D+00 -.139698386192D-08  .240000000000D+02
     .468006000000D+06  .400000000000D+01
25 10 10  1 12  0  0.0 -.435584224761D-04 -.170530256582D-11  .000000000000D+00
     .170000000000D+02 -.753125000000D+02  .461983529183D-08  .504789269334D+00
    -.395812094212D-05  .733394408599D-03  .745616853237D-05  .515376853561D+04
     .475200000000D+06 -.372529029846D-07  .128373094619D+01  .372529029846D-07
     .960726956831D+00  .234125000000D+03  .194245810523D+01 -.811319509000D-08
     .178578867098D-11  .100000000000D+01  .160300000000D+04  .100000000000D+01
     .240000000000D+01  .000000000000D+00  .465661287308D-08  .170000000000D+02
     .468006000000D+06  .400000000000D+01
26 10 10  1 12  0  0.0 -.212625600398D-04 -.727595761418D-11  .000000000000D+00
     .220000000000D+02  .627500000000D+02  .375408494414D-08 -.166202052912D+01
     .348128378391D-05  .198063721182D-01  .628456473351D-05  .515364594460D+04
     .475200000000D+06  .394880771637D-06 -.725681080833D+00  .689178705215D-07
     .989566277236D+00  .267375000000D+03  .111199868858D+01 -.762746057149D-08
     .173221501085D-09  .100000000000D+01  .160300000000D+04  .000000000000D+00
     .240000000000D+01  .000000000000D+00 -.605359673500D-08  .220000000000D+02
     .468006000000D+06  .400000000000D+01
27 10 10  1 12  0  0.0  .194120220840D-03  .352429196937D-11  .000000000000D+00
     .330000000000D+02 -.184375000000D+01  .437589655937D-08 -.528215770901D+00
    -.176951289177D-06  .216199710267D-01  .475533306599D-05  .515357527161D+04
     .475200000000D+06 -.260770320892D-06  .201200992669D+00 -.745058059692D-08
     .979685033643D+00  .303406250000D+03 -.136694131985D+01 -.851571185644D-08
     .231795369493D-09  .100000000000D+01  .160300000000D+04  .000000000000D+00
     .240000000000D+01  .000000000000D+00 -.419095158577D-08  .330000000000D+02
     .468006000000D+06  .400000000000D+01
